[{"OBJECT_NAME":"STARLINK-30493","OBJECT_ID":"2023-161V","EPOCH":"2026-03-09T12:33:04.272768","MEAN_MOTION":15.30192702,"ECCENTRICITY":0.00011313,"INCLINATION":53.1606,"RA_OF_ASC_NODE":166.4794,"ARG_OF_PERICENTER":81.1879,"MEAN_ANOMALY":278.925,"EPHEMERIS_TYPE":0,"CLASSIFICATION_TYPE":"U","NORAD_CAT_ID":58116,"ELEMENT_SET_NO":999,"REV_AT_EPOCH":13439,"BSTAR":2.0415311e-5,"MEAN_MOTION_DOT":2.45e-6,"MEAN_MOTION_DDOT":0},{"OBJECT_NAME":"CZ-4C R\/B","OBJECT_ID":"2021-079B","EPOCH":"2026-03-09T14:04:29.438112","MEAN_MOTION":15.08928015,"ECCENTRICITY":0.0108377,"INCLINATION":98.3883,"RA_OF_ASC_NODE":282.6111,"ARG_OF_PERICENTER":26.1585,"MEAN_ANOMALY":334.506,"EPHEMERIS_TYPE":0,"CLASSIFICATION_TYPE":"U","NORAD_CAT_ID":49123,"ELEMENT_SET_NO":999,"REV_AT_EPOCH":24640,"BSTAR":0.00023549,"MEAN_MOTION_DOT":4.178e-5,"MEAN_MOTION_DDOT":0}]
